SEEDS II (CO-66)        
1 32791U 08021J   26084.95033001  .00017713  00000+0  61660-3 0  9994
2 32791  97.7531  79.0677 0001356 185.3159 174.8066 15.29752293974556
YUBILEINY (RS30)        
1 32953U 08025A   26085.28642191  .00000077  00000+0  47805-3 0  9991
2 32953  82.5035  46.9964 0020132 129.5805 230.7057 12.43176580809393
KKS-1 (KISEKI)          
1 33499U 09002H   26085.26694852  .00001579  00000+0  20161-3 0  9996
2 33499  98.1184   6.4147 0007397 189.2661 170.8416 14.82887860923904
SWISSCUBE               
1 35932U 09051B   26085.24206494  .00001186  00000+0  24464-3 0  9997
2 35932  98.4084 351.6777 0007946 106.7264 253.4810 14.62302570877033
BEESAT-1                
1 35933U 09051C   26085.27752336  .00000991  00000+0  20933-3 0  9992
2 35933  98.4015 351.5204 0006259 117.4630 242.7208 14.61569657877070
ITUPSAT1                
1 35935U 09051E   26085.26465634  .00000903  00000+0  19689-3 0  9994
2 35935  98.4102 350.7855 0008303 129.2090 230.9848 14.60301501876636
XIWANG-1 (HOPE-1)       
1 36122U 09072B   26085.25282818 -.00000241  00000+0 -51406-3 0  9996
2 36122 100.3946  40.4423 0008139  64.6175 295.5780 13.16435280782091
O/OREOS (USA 219)       
1 37224U 10062C   26084.94294190  .00002507  00000+0  24420-3 0  9993
2 37224  71.9693 268.8472 0016323 229.0840 130.8918 14.93363038104210
JUGNU                   
1 37839U 11058B   26085.07945288  .00000443  00000+0  91825-4 0  9998
2 37839  19.9606  93.3236 0018380 238.2182 167.6396 14.13747501747251
SRMSAT                  
1 37841U 11058D   26085.03849637  .00000420  00000+0  83977-4 0  9992
2 37841  19.9710 202.7494 0011876   9.6058 155.4752 14.11553558746050
STRAND-1                
1 39090U 13009E   26085.06543717  .00000331  00000+0  12583-3 0  9996
2 39090  98.3901 267.3509 0009737 116.6699 243.5486 14.37108073685127
ZACUBE-1 (TSHEPISOSAT)  
1 39417U 13066B   26085.13599374  .00003712  00000+0  29380-3 0  9999
2 39417  97.8146  47.0400 0044385 166.1219 194.1236 15.00468357668270
GOMX-1                  
1 39430U 13066Q   26085.30693138  .00001461  00000+0  22667-3 0  9996
2 39430  97.6557 290.9752 0128941 344.3424  15.3810 14.69158740657745
CUBEBUG-2 (LO-74)       
1 39440U 13066AA  26085.11699808  .00004544  00000+0  42783-3 0  9992
2 39440  97.8824  33.8201 0057034 303.8862  55.6939 14.93135538664595
FUNCUBE-1 (AO-73)       
1 39444U 13066AE  26084.89741352  .00007210  00000+0  46234-3 0  9990
2 39444  97.8216  54.7172 0038935 125.0511 235.4379 15.08188286667108
UWE-3                   
1 39446U 13066AG  26085.11390184  .00003190  00000+0  28087-3 0  9990
2 39446  97.8625  40.7144 0048090 235.8475 123.8181 14.96348346665155
UNISAT-6                
1 40012U 14033C   26085.15192049  .00002751  00000+0  30230-3 0  9995
2 40012  97.7760 239.4038 0044816 343.7563  16.2214 14.87742965633818
DUCHIFAT-1              
1 40021U 14033M   26085.21769115  .00058345  00000+0  97002-3 0  9996
2 40021  98.0608 133.6178 0004149  35.1692 324.9831 15.51870437642837
QB50P1                  
1 40025U 14033R   26085.00571314  .00008317  00000+0  42590-3 0  9995
2 40025  98.1014  90.3961 0010086 140.9641 219.2321 15.16846350640418
LILACSAT-2              
1 40908U 15049K   26085.31812557  .00016836  00000+0  31639-3 0  9991
2 40908  97.4787 119.1249 0007467 178.4810 181.6464 15.48631605582919
FOX-1A (AO-85)          
1 40967U 15058D   26085.30018171  .00002450  00000+0  22953-3 0  9991
2 40967  64.7756 176.4683 0128463  89.2384 272.3445 14.90474331101214
CAS-2T & KS-1Q          
1 41847U 16066G   26085.12330832  .00001074  00000+0  15926-3 0  9993
2 41847  98.3862 161.7913 0342823  21.7704 339.7664 14.44512909492803
RADFXSAT (FOX-1B)       
1 43017U 17073E   26085.08419278  .00007766  00000+0  35189-3 0  9997
2 43017  97.4836 314.0364 0152973 255.1240 103.3006 15.11204356452834
DIWATA-2B               
1 43678U 18084H   26085.26575510  .00001144  00000+0  97038-4 0  9991
2 43678  98.1045 277.9829 0013364  77.7992 282.4726 15.00039589403782
ES'HAIL 2               
1 43700U 18090A   26085.26802403  .00000129  00000+0  00000+0 0  9998
2 43700   0.0179 159.7870 0001090 195.5270 310.6720  1.00272804 26842
FOX-1CLIFF (AO-95)      
1 43770U 18099N   26085.11680699  .00012050  00000+0  48754-3 0  9997
2 43770  97.4477 145.7494 0007392 280.0471  79.9933 15.24831651400558
ITASAT                  
1 43786U 18099AE  26085.12430953  .00006254  00000+0  31102-3 0  9999
2 43786  97.4133 138.3194 0011130 283.1191  76.8801 15.17930832400303
JY1SAT (JO-97)          
1 43803U 18099AX  26085.16100538  .00016626  00000+0  55844-3 0  9999
2 43803  97.4221 147.8413 0005993 190.7611 169.3503 15.30905328400911
UWE-4                   
1 43880U 18111E   26085.30337313  .00027558  00000+0  66705-3 0  9992
2 43880  97.5845  10.2076 0005833 260.6298  99.4289 15.41068486397992
TIANYAN 01              
1 44881U 19093C   26085.24633941  .00001094  00000+0  12997-3 0  9994
2 44881  97.7578 159.4899 0013748   6.6534 353.4862 14.86377825339098
RS-44 & BREEZE-KM R/B   
1 44909U 19096E   26085.29017992  .00000025  00000+0  59258-4 0  9990
2 44909  82.5239  34.7828 0217191 338.5219  20.6872 12.79747704291747
SALSAT                  
1 46495U 20068K   26084.97557528  .00007683  00000+0  27980-3 0  9994
2 46495  97.8869  83.0575 0008487 227.1294 132.9232 15.28490176302649
XW-3 (CAS-9)            
1 50466U 21131B   26085.30456912  .00000461  00000+0  15629-3 0  9996
2 50466  98.4942 178.1631 0003904   5.2290 354.8939 14.41271554223170
GREENCUBE (IO-117)      
1 53109U 22080E   26085.07445587 -.00000003  00000+0  00000+0 0  9993
2 53109  70.1562 327.1605 0008976 308.7387  51.2470  6.42583188 86728
UMKA 1 (RS40S)          
1 57172U 23091G   26085.29643198  .00006355  00000+0  29893-3 0  9992
2 57172  97.5145 144.3346 0014142  54.2246 306.0302 15.19832523151410
CUBESX-HSE 3 (RS42S)    
1 57178U 23091N   26085.25368560  .00013215  00000+0  46949-3 0  9995
2 57178  97.5172 149.8943 0011560  34.1547 326.0434 15.29088217151749
MONITOR-3 (RS58S)       
1 57180U 23091Q   26085.30323292  .00010488  00000+0  40803-3 0  9999
2 57180  97.5169 148.2131 0012689  39.1808 321.0346 15.26135245151645
MONITOR-4 (RS57S)       
1 57182U 23091S   26085.22184530  .00010345  00000+0  40145-3 0  9993
2 57182  97.5163 148.0971 0012674  39.8794 320.3373 15.26223083151635
MONITOR-2 (RS39S)       
1 57184U 23091U   26085.28436642  .00004856  00000+0  24102-3 0  9990
2 57184  97.5168 144.1135 0012400  47.8559 312.3726 15.18106602151378
SVYATOBOR 1 (RS60S)     
1 57187U 23091X   26085.30105627  .00009200  00000+0  36933-3 0  9995
2 57187  97.5174 148.7158 0010136  33.5084 326.6793 15.25152450151677
VIZARD-METEO (RS38S)    
1 57189U 23091Z   26085.27688330  .00016213  00000+0  50468-3 0  9991
2 57189  97.5163 153.2414 0007428  18.7785 341.3730 15.33348061151978
NANOZOND 1 (RS49S)      
1 57190U 23091AA  26078.96088730  .00196167  00000+0  10787-2 0  9995
2 57190  97.5046 160.0690 0002898 268.2838  91.8096 15.79180031151893
POLYTECH-UNIVERSE 3 (R*)
1 57191U 23091AB  26085.25642534  .00005147  00000+0  25343-3 0  9996
2 57191  97.5143 143.5919 0017068  61.7409 298.5545 15.18295725151364
UTMN 2 (RS27S)          
1 57203U 23091AP  26085.25249287  .00013194  00000+0  45681-3 0  9996
2 57203  97.5164 151.4245 0008449  24.2111 335.9524 15.29960447151857
KUZGTU 1 (RS47S)        
1 57217U 23091AV  26085.24196776  .00012136  00000+0  44702-3 0  9992
2 57217  97.5148 148.9652 0011898  37.3112 322.8952 15.27917448151700
SONATE-2                
1 59112U 24043Q   26084.90721617  .00036839  00000+0  59780-3 0  9994
2 59112  97.5425 230.6343 0008147 147.4315 212.7441 15.52624300114946
MESAT1                  
1 60209U 24125G   26085.11652870  .00042683  00000+0  63107-3 0  9994
2 60209  97.2435 301.1521 0012399 159.4998 200.6757 15.55112711 96620
OOV-CUBE (TUBSAT-30)    
1 60240U 24128F   26085.26943267  .00002135  00000+0  17175-3 0  9993
2 60240  61.9946 154.6147 0053177 115.7516 244.9077 15.02358680 93650
COLIBRI-S (RS67S)       
1 61746U 24199M   26085.27745318  .00020080  00000+0  43828-3 0  9994
2 61746  97.3131 318.5272 0008097 211.8295 148.2465 15.44213454124606
HORS 3 (RS81S)          
1 61753U 24199U   26085.24936547  .00030773  00000+0  55917-3 0  9997
2 61753  97.3099 319.7257 0005976 211.5237 148.5657 15.49481836124690
HORS 4 (RS82S)          
1 61754U 24199V   26085.28583226  .00036483  00000+0  59404-3 0  9993
2 61754  97.3071 320.5274 0005785 204.8719 155.2256 15.52548601124753
HORIZON (RS59S)         
1 61757U 24199Y   26085.28957903  .00161392  00000+0  10551-2 0  9990
2 61757  97.3023 324.8920 0005332 170.7537 189.3828 15.75338587125035
ARCTICSAT 1 (RS74S)     
1 61762U 24199AD  26085.29338028  .00108373  00000+0  91685-3 0  9996
2 61762  97.3045 324.2901 0005520 171.0292 189.1070 15.69374488124993
SIT-2086                
1 61764U 24199AF  26085.26957385  .00022493  00000+0  42412-3 0  9990
2 61764  97.3092 320.4544 0006593 199.8998 160.1997 15.48478670121584
HYPERVIEW 1G (RS66S)    
1 61772U 24199AP  26085.25096755  .00066648  00000+0  81074-3 0  9990
2 61772  97.3051 321.7791 0007062 205.3665 154.7247 15.60307770121686
ALTAIR (RS65S)          
1 61779U 24199AW  26085.25773086  .00011459  00000+0  33500-3 0  9997
2 61779  97.3156 315.1932 0011705 240.2123 119.7957 15.35373370124389
ASRTU-1 (AO-123)        
1 61781U 24199AY  26085.24755428  .00008534  00000+0  25809-3 0  9992
2 61781  97.3129 314.6804 0012550 242.9063 117.0900 15.34379155121208
TUSUR GO (RS78S)        
1 61782U 24199AZ  26085.29291984  .00194604  00000+0  11980-2 0  9998
2 61782  97.2973 323.9181 0005427 183.8952 176.2273 15.76628357121837
SAMSAT-IONOSPHERE (RS7*)
1 61784U 24199BB  26085.26000040  .00037815  00000+0  65323-3 0  9999
2 61784  97.3089 319.5592 0008828 218.0234 142.0396 15.50855118124689
